     2              NAVIGATION DATA                         RINEX VERSION / TYPE
CCRINEXN V1.6.0 UX  CDDIS               27-DEC-18 17:31     PGM / RUN BY / DATE 
IGS BROADCAST EPHEMERIS FILE                                COMMENT             
    0.8382D-08 -0.1490D-07 -0.5960D-07  0.1192D-06          ION ALPHA           
    0.9421D+05 -0.1311D+06 -0.1311D+06  0.8520D+06          ION BETA            
   -0.186264514923D-08-0.532907051820D-14   405504     2033 DELTA-UTC: A0,A1,T,W
    18                                                      LEAP SECONDS        
                                                            END OF HEADER       
25 18 12 26  2  0  0.0-0.696583185345D-03-0.545696821064D-11 0.000000000000D+00
    0.530000000000D+02 0.100875000000D+03 0.402266756025D-08-0.271404342831D+01
    0.508688390255D-05 0.788999511860D-02 0.112019479275D-04 0.515378440857D+04
    0.266400000000D+06 0.100582838059D-06-0.232031144745D+01-0.176951289177D-06
    0.972177411206D+00 0.168125000000D+03 0.846756414758D+00-0.766139055624D-08
   -0.785747015231D-10 0.100000000000D+01 0.203300000000D+04 0.000000000000D+00
    0.200000000000D+01 0.000000000000D+00 0.558793544769D-08 0.530000000000D+02
    0.259218000000D+06 0.400000000000D+01 0.000000000000D+00 0.000000000000D+00
26 18 12 26  2  0  0.0 0.782017596066D-04 0.106865627458D-10 0.000000000000D+00
    0.102000000000D+03 0.100562500000D+03 0.451340209651D-08 0.291072259679D+01
    0.525452196598D-05 0.342368846759D-02 0.118650496006D-04 0.515377835274D+04
    0.266400000000D+06-0.894069671631D-07-0.234608919631D+01-0.502914190292D-07
    0.953585534974D+00 0.145750000000D+03 0.707058107351D-01-0.790818699414D-08
   -0.157863722095D-09 0.100000000000D+01 0.203300000000D+04 0.000000000000D+00
    0.280000000000D+01 0.000000000000D+00 0.745058059692D-08 0.102000000000D+03
    0.259230000000D+06 0.000000000000D+00 0.000000000000D+00 0.000000000000D+00
27 18 12 26  2  0  0.0-0.381995923817D-04-0.613908923697D-11 0.000000000000D+00
    0.600000000000D+02 0.833437500000D+02 0.441482672642D-08 0.106323079444D+01
    0.447407364845D-05 0.633638806175D-02 0.294670462608D-05 0.515370616531D+04
    0.266400000000D+06 0.391155481338D-07-0.127924254236D+01 0.409781932831D-07
    0.978055734964D+00 0.328281250000D+03 0.425095897030D+00-0.842463698803D-08
    0.142148778859D-09 0.100000000000D+01 0.203300000000D+04 0.000000000000D+00
    0.200000000000D+01 0.000000000000D+00 0.186264514923D-08 0.600000000000D+02
    0.259230000000D+06 0.000000000000D+00 0.000000000000D+00 0.000000000000D+00
28 18 12 26  2  0  0.0 0.759828835726D-03 0.136424205266D-11 0.000000000000D+00
    0.950000000000D+02 0.848125000000D+02 0.379765818771D-08 0.191788574821D+01
    0.427477061748D-05 0.195523407310D-01 0.103581696749D-04 0.515369951630D+04
    0.266400000000D+06 0.329688191414D-06-0.223492116786D+01-0.249594449997D-06
    0.983913374524D+00 0.186656250000D+03-0.148515117177D+01-0.743245244862D-08
   -0.660741808263D-10 0.100000000000D+01 0.203300000000D+04 0.000000000000D+00
    0.280000000000D+01 0.000000000000D+00-0.111758708954D-07 0.950000000000D+02
    0.260730000000D+06 0.400000000000D+01 0.000000000000D+00 0.000000000000D+00
29 18 12 26  2  0  0.0 0.307481270283D-03-0.829913915368D-11 0.000000000000D+00
    0.810000000000D+02 0.674687500000D+02 0.421088968617D-08 0.171082386684D+01
    0.337325036526D-05 0.607335940003D-03 0.185891985893D-05 0.515358549309D+04
    0.266400000000D+06 0.204890966415D-07-0.121303183270D+01-0.614672899246D-07
    0.984877955412D+00 0.354875000000D+03 0.157457355933D+01-0.824427197845D-08
    0.155363614375D-09 0.100000000000D+01 0.203300000000D+04 0.000000000000D+00
    0.200000000000D+01 0.000000000000D+00-0.102445483208D-07 0.810000000000D+02
    0.259218000000D+06 0.400000000000D+01 0.000000000000D+00 0.000000000000D+00
30 18 12 26  2  0  0.0-0.255745835602D-04-0.591171556152D-11 0.000000000000D+00
    0.460000000000D+02-0.141250000000D+02 0.515878628704D-08-0.176471524681D+01
   -0.951811671257D-06 0.358495267574D-02 0.789947807789D-05 0.515364268684D+04
    0.266400000000D+06 0.372529029846D-07 0.295913449421D+01-0.651925802231D-07
    0.942478993622D+00 0.218437500000D+03-0.300263755099D+01-0.829748891817D-08
   -0.414302980811D-09 0.100000000000D+01 0.203300000000D+04 0.000000000000D+00
    0.200000000000D+01 0.000000000000D+00 0.372529029846D-08 0.460000000000D+02
    0.266190000000D+06 0.000000000000D+00 0.000000000000D+00 0.000000000000D+00
31 18 12 26  2  0  0.0 0.702710822225D-04-0.261479726760D-11 0.000000000000D+00
    0.660000000000D+02-0.846875000000D+01 0.478769957013D-08-0.212576495899D+01
   -0.620260834694D-06 0.914003199432D-02 0.854209065437D-05 0.515379937935D+04
    0.266400000000D+06-0.912696123123D-07 0.294209910868D+01-0.184401869774D-06
    0.961552025073D+00 0.218593750000D+03-0.478240428062D-01-0.803962052487D-08
   -0.451804538226D-09 0.100000000000D+01 0.203300000000D+04 0.000000000000D+00
    0.280000000000D+01 0.000000000000D+00-0.135041773319D-07 0.660000000000D+02
    0.000000000000D+00 0.000000000000D+00 0.000000000000D+00 0.000000000000D+00
32 18 12 26  2  0  0.0-0.303134322166D-03 0.161435309565D-10 0.000000000000D+00
    0.480000000000D+02 0.236562500000D+02 0.493806283299D-08 0.184192339486D+01
    0.126473605633D-05 0.239120819606D-02 0.677071511745D-05 0.515372977829D+04
    0.266400000000D+06-0.372529029846D-07 0.185787910442D+01 0.447034835815D-07
    0.956376614433D+00 0.242312500000D+03-0.263033166143D+01-0.819927010394D-08
    0.470733893670D-09 0.100000000000D+01 0.203300000000D+04 0.000000000000D+00
    0.200000000000D+01 0.000000000000D+00 0.465661287308D-09 0.480000000000D+02
    0.259218000000D+06 0.400000000000D+01 0.000000000000D+00 0.000000000000D+00
 8 18 12 26  3 59 44.0-0.126859173179D-03-0.125055521494D-11 0.000000000000D+00
    0.200000000000D+02 0.911562500000D+02 0.464912242037D-08 0.248640532913D+01
    0.481680035591D-05 0.401123019401D-02 0.266917049885D-05 0.515367426491D+04
    0.273584000000D+06 0.298023223877D-07-0.128946077060D+01 0.106170773506D-06
    0.969812355434D+00 0.332406250000D+03-0.402962783280D+00-0.841642222582D-08
    0.261796612166D-09 0.100000000000D+01 0.203300000000D+04 0.000000000000D+00
    0.200000000000D+01 0.000000000000D+00 0.512227416039D-08 0.200000000000D+02
    0.266430000000D+06 0.000000000000D+00 0.000000000000D+00 0.000000000000D+00
18 18 12 26  3 59 44.0 0.932998955250D-05 0.386535248253D-11 0.000000000000D+00
    0.290000000000D+02-0.108375000000D+03 0.502913799494D-08-0.291697323027D+00
   -0.561028718948D-05 0.149689968675D-01 0.369176268578D-05 0.515361074448D+04
    0.273584000000D+06-0.147148966789D-06-0.275168623569D+00 0.163912773132D-06
    0.952567801884D+00 0.304218750000D+03 0.136590549631D+01-0.884608297724D-08
   -0.265368199637D-09 0.100000000000D+01 0.203300000000D+04 0.000000000000D+00
    0.200000000000D+01 0.000000000000D+00-0.651925802231D-08 0.290000000000D+02
    0.266430000000D+06 0.000000000000D+00 0.000000000000D+00 0.000000000000D+00
19 18 12 26  3 59 44.0-0.370060093701D-03 0.386535248253D-11 0.000000000000D+00
    0.200000000000D+01 0.606250000000D+02 0.430267922386D-08-0.142430383723D+01
    0.341981649399D-05 0.938357901759D-02 0.258535146713D-05 0.515361456108D+04
    0.273584000000D+06 0.540167093277D-07-0.117742382294D+01 0.219792127609D-06
    0.981205499993D+00 0.340156250000D+03 0.132658484186D+01-0.820998483596D-08
    0.181793286706D-09 0.100000000000D+01 0.203300000000D+04 0.000000000000D+00
    0.200000000000D+01 0.000000000000D+00-0.153668224812D-07 0.200000000000D+01
    0.269736000000D+06 0.400000000000D+01 0.000000000000D+00 0.000000000000D+00
23 18 12 26  3 59 44.0-0.202457420528D-03 0.113686837722D-11 0.000000000000D+00
    0.190000000000D+02 0.242187500000D+02 0.524236121180D-08 0.694120138856D+00
    0.144913792610D-05 0.126473569544D-01 0.730343163014D-05 0.515366292381D+04
    0.273584000000D+06-0.147148966789D-06 0.184818807821D+01 0.119209289551D-06
    0.942882723901D+00 0.231250000000D+03-0.231205305107D+01-0.847928216530D-08
    0.317156079177D-09 0.100000000000D+01 0.203300000000D+04 0.000000000000D+00
    0.200000000000D+01 0.000000000000D+00-0.200234353542D-07 0.190000000000D+02
    0.273480000000D+06 0.000000000000D+00 0.000000000000D+00 0.000000000000D+00
26 18 12 26  3 59 44.0 0.782809220254D-04 0.106865627458D-10 0.000000000000D+00
    0.140000000000D+02 0.101250000000D+03 0.442732739359D-08-0.232469653269D+01
    0.506453216076D-05 0.342290918343D-02 0.117328017950D-04 0.515377967453D+04
    0.273584000000D+06-0.465661287308D-07-0.234614610528D+01-0.100582838059D-06
    0.953584380731D+00 0.152562500000D+03 0.707219057598D-01-0.792497267810D-08
   -0.137505729025D-09 0.100000000000D+01 0.203300000000D+04 0.000000000000D+00
    0.200000000000D+01 0.000000000000D+00 0.745058059692D-08 0.140000000000D+02
    0.000000000000D+00 0.000000000000D+00 0.000000000000D+00 0.000000000000D+00
31 18 12 26  3 59 44.0 0.702519901097D-04-0.261479726760D-11 0.000000000000D+00
    0.180000000000D+02-0.893750000000D+01 0.473162566263D-08-0.107810654129D+01
   -0.715255737305D-06 0.914002000354D-02 0.772438943386D-05 0.515379740715D+04
    0.273584000000D+06 0.391155481338D-07 0.294204072947D+01-0.124797224999D-06
    0.961549127032D+00 0.226031250000D+03-0.477093939163D-01-0.807890794751D-08
   -0.373229832235D-09 0.100000000000D+01 0.203300000000D+04 0.000000000000D+00
    0.200000000000D+01 0.000000000000D+00-0.135041773319D-07 0.180000000000D+02
    0.270126000000D+06 0.400000000000D+01 0.000000000000D+00 0.000000000000D+00
